MONOLITH                
1 49052U 21068A   26068.54548855  .00008348  00000+0  53656-3 0  9993
2 49052  37.0220 141.2957 0002679 131.6464 228.4511 15.08010119252226
STARLINK-3332           
1 50825U 22001Y   26068.74688913 -.00000755  00000+0 -29361-4 0  9996
2 50825  53.2155 168.8647 0001151  80.4473 279.6649 15.08846097230418
